STARLINK-31133          
1 58622U 23203E   26068.05764405 -.00000772  00000+0 -18541-4 0  9996
2 58622  43.0013  70.7522 0000694 221.5435 138.5364 15.27577580123463
FLOCK 4G-5              
1 62663U 25009BG  26068.45638436  .00011278  00000+0  40688-3 0  9997
2 62663  97.4058 151.2478 0002094 314.5072  45.5996 15.28679529 63699
