[{"OBJECT_NAME":"STARLINK-31133","OBJECT_ID":"2023-203E","EPOCH":"2026-03-09T01:23:00.445920","MEAN_MOTION":15.2757758,"ECCENTRICITY":6.944e-5,"INCLINATION":43.0013,"RA_OF_ASC_NODE":70.7522,"ARG_OF_PERICENTER":221.5435,"MEAN_ANOMALY":138.5364,"EPHEMERIS_TYPE":0,"CLASSIFICATION_TYPE":"U","NORAD_CAT_ID":58622,"ELEMENT_SET_NO":999,"REV_AT_EPOCH":12346,"BSTAR":-1.8540735e-5,"MEAN_MOTION_DOT":-7.72e-6,"MEAN_MOTION_DDOT":0},{"OBJECT_NAME":"FLOCK 4G-5","OBJECT_ID":"2025-009BG","EPOCH":"2026-03-09T10:57:11.608704","MEAN_MOTION":15.28679529,"ECCENTRICITY":0.00020946,"INCLINATION":97.4058,"RA_OF_ASC_NODE":151.2478,"ARG_OF_PERICENTER":314.5072,"MEAN_ANOMALY":45.5996,"EPHEMERIS_TYPE":0,"CLASSIFICATION_TYPE":"U","NORAD_CAT_ID":62663,"ELEMENT_SET_NO":999,"REV_AT_EPOCH":6369,"BSTAR":0.00040688068,"MEAN_MOTION_DOT":0.00011278,"MEAN_MOTION_DDOT":0}]
